{
  "type": "FeatureCollection",
  "features": [
    {
      "type": "Feature",
      "properties": {
        "norad_id": 29268,
        "name": "ARIRANG-2 (KOMPSAT-2)",
        "group": "resource",
        "lat": -42.67601772131773,
        "lon": 1.57866922530319,
        "alt_km": 677.8727303191235,
        "timestamp": "2025-12-27T02:10:15.844566+00:00",
        "meta_object_name": "ARIRANG-2 (KOMPSAT-2)",
        "meta_object_id": "2006-031A",
        "meta_epoch": "2025-12-26T20:44:59.857152",
        "meta_mean_motion": 14.64507579,
        "meta_eccentricity": 0.0013119,
        "meta_inclination": 97.826,
        "meta_ra_of_asc_node": 188.6491,
        "meta_arg_of_pericenter": 260.5149,
        "meta_mean_anomaly": 212.4845,
        "meta_ephemeris_type": 0,
        "meta_classification_type": "U",
        "meta_norad_cat_id": 29268,
        "meta_element_set_no": 999,
        "meta_rev_at_epoch": 3625,
        "meta_bstar": 0.00016812,
        "meta_mean_motion_dot": 8.47e-06,
        "meta_mean_motion_ddot": 0,
        "tle_line1": "1 29268U 06031A   25360.86458168  .00000847  00000+0  16812-3 0  9998",
        "tle_line2": "2 29268  97.8260 188.6491 0013119 260.5149 212.4845 14.64507579 36250"
      },
      "geometry": {
        "type": "Point",
        "coordinates": [
          1.57866922530319,
          -42.67601772131773
        ]
      }
    },
    {
      "type": "Feature",
      "properties": {
        "norad_id": 29709,
        "name": "LAPAN-TUBSAT",
        "group": "resource",
        "lat": 8.851185961225458,
        "lon": 172.81738372787186,
        "alt_km": 620.1524494035648,
        "timestamp": "2025-12-27T02:10:15.844577+00:00",
        "meta_object_name": "LAPAN-TUBSAT",
        "meta_object_id": "2007-001A",
        "meta_epoch": "2025-12-26T20:33:20.531232",
        "meta_mean_motion": 14.85690352,
        "meta_eccentricity": 0.0013037,
        "meta_inclination": 98.1268,
        "meta_ra_of_asc_node": 351.3035,
        "meta_arg_of_pericenter": 32.0907,
        "meta_mean_anomaly": 328.1099,
        "meta_ephemeris_type": 0,
        "meta_classification_type": "U",
        "meta_norad_cat_id": 29709,
        "meta_element_set_no": 999,
        "meta_rev_at_epoch": 2556,
        "meta_bstar": 8.0954e-05,
        "meta_mean_motion_dot": 6.45e-06,
        "meta_mean_motion_ddot": 0,
        "tle_line1": "1 29709U 07001A   25360.85648763  .00000645  00000+0  80954-4 0  9992",
        "tle_line2": "2 29709  98.1268 351.3035 0013037  32.0907 328.1099 14.85690352 25561"
      },
      "geometry": {
        "type": "Point",
        "coordinates": [
          172.81738372787186,
          8.851185961225458
        ]
      }
    },
    {
      "type": "Feature",
      "properties": {
        "norad_id": 31113,
        "name": "HAIYANG-1B",
        "group": "resource",
        "lat": 64.92426269607058,
        "lon": -176.96902150304498,
        "alt_km": 786.522198144492,
        "timestamp": "2025-12-27T02:10:15.844587+00:00",
        "meta_object_name": "HAIYANG-1B",
        "meta_object_id": "2007-010A",
        "meta_epoch": "2025-12-26T17:15:05.442336",
        "meta_mean_motion": 14.3096964,
        "meta_eccentricity": 0.0013504,
        "meta_inclination": 98.3331,
        "meta_ra_of_asc_node": 344.4203,
        "meta_arg_of_pericenter": 357.8012,
        "meta_mean_anomaly": 2.311,
        "meta_ephemeris_type": 0,
        "meta_classification_type": "U",
        "meta_norad_cat_id": 31113,
        "meta_element_set_no": 999,
        "meta_rev_at_epoch": 97596,
        "meta_bstar": 6.9884e-05,
        "meta_mean_motion_dot": 1.42e-06,
        "meta_mean_motion_ddot": 0,
        "tle_line1": "1 31113U 07010A   25360.71881299  .00000142  00000+0  69884-4 0  9993",
        "tle_line2": "2 31113  98.3331 344.4203 0013504 357.8012   2.3110 14.30969640975962"
      },
      "geometry": {
        "type": "Point",
        "coordinates": [
          -176.96902150304498,
          64.92426269607058
        ]
      }
    },
    {
      "type": "Feature",
      "properties": {
        "norad_id": 31598,
        "name": "COSMO-SKYMED 1",
        "group": "resource",
        "lat": -68.98688345860604,
        "lon": -152.27020733693726,
        "alt_km": 587.6073564102862,
        "timestamp": "2025-12-27T02:10:15.844598+00:00",
        "meta_object_name": "COSMO-SKYMED 1",
        "meta_object_id": "2007-023A",
        "meta_epoch": "2025-12-26T20:03:50.464800",
        "meta_mean_motion": 14.95868511,
        "meta_eccentricity": 0.0001124,
        "meta_inclination": 97.8838,
        "meta_ra_of_asc_node": 186.3284,
        "meta_arg_of_pericenter": 77.6556,
        "meta_mean_anomaly": 282.479,
        "meta_ephemeris_type": 0,
        "meta_classification_type": "U",
        "meta_norad_cat_id": 31598,
        "meta_element_set_no": 999,
        "meta_rev_at_epoch": 401,
        "meta_bstar": 0.00032288,
        "meta_mean_motion_dot": 3.55e-05,
        "meta_mean_motion_ddot": 0,
        "tle_line1": "1 31598U 07023A   25360.83600075  .00003550  00000+0  32288-3 0  9991",
        "tle_line2": "2 31598  97.8838 186.3284 0001124  77.6556 282.4790 14.95868511  4012"
      },
      "geometry": {
        "type": "Point",
        "coordinates": [
          -152.27020733693726,
          -68.98688345860604
        ]
      }
    },
    {
      "type": "Feature",
      "properties": {
        "norad_id": 31698,
        "name": "TERRASAR-X",
        "group": "resource",
        "lat": 67.3879880250036,
        "lon": -12.036691299583493,
        "alt_km": 500.59531990754385,
        "timestamp": "2025-12-27T02:10:15.844609+00:00",
        "meta_object_name": "TERRASAR-X",
        "meta_object_id": "2007-026A",
        "meta_epoch": "2025-12-26T13:13:25.268160",
        "meta_mean_motion": 15.19159007,
        "meta_eccentricity": 0.0001831,
        "meta_inclination": 97.4449,
        "meta_ra_of_asc_node": 5.7296,
        "meta_arg_of_pericenter": 80.7089,
        "meta_mean_anomaly": 279.4352,
        "meta_ephemeris_type": 0,
        "meta_classification_type": "U",
        "meta_norad_cat_id": 31698,
        "meta_element_set_no": 999,
        "meta_rev_at_epoch": 2701,
        "meta_bstar": 7.4512e-05,
        "meta_mean_motion_dot": 1.498e-05,
        "meta_mean_motion_ddot": 0,
        "tle_line1": "1 31698U 07026A   25360.55098690  .00001498  00000+0  74512-4 0  9994",
        "tle_line2": "2 31698  97.4449   5.7296 0001831  80.7089 279.4352 15.19159007 27010"
      },
      "geometry": {
        "type": "Point",
        "coordinates": [
          -12.036691299583493,
          67.3879880250036
        ]
      }
    },
    {
      "type": "Feature",
      "properties": {
        "norad_id": 32060,
        "name": "WORLDVIEW-1 (WV-1)",
        "group": "resource",
        "lat": -23.069280043438198,
        "lon": 121.52471752772962,
        "alt_km": 497.2968597862591,
        "timestamp": "2025-12-27T02:10:15.844619+00:00",
        "meta_object_name": "WORLDVIEW-1 (WV-1)",
        "meta_object_id": "2007-041A",
        "meta_epoch": "2025-12-26T18:23:37.622688",
        "meta_mean_motion": 15.2398676,
        "meta_eccentricity": 0.0003036,
        "meta_inclination": 97.3817,
        "meta_ra_of_asc_node": 118.0405,
        "meta_arg_of_pericenter": 348.4231,
        "meta_mean_anomaly": 11.6936,
        "meta_ephemeris_type": 0,
        "meta_classification_type": "U",
        "meta_norad_cat_id": 32060,
        "meta_element_set_no": 999,
        "meta_rev_at_epoch": 1661,
        "meta_bstar": 0.00036369,
        "meta_mean_motion_dot": 8.739e-05,
        "meta_mean_motion_ddot": 0,
        "tle_line1": "1 32060U 07041A   25360.76640767  .00008739  00000+0  36369-3 0  9998",
        "tle_line2": "2 32060  97.3817 118.0405 0003036 348.4231  11.6936 15.23986760 16611"
      },
      "geometry": {
        "type": "Point",
        "coordinates": [
          121.52471752772962,
          -23.069280043438198
        ]
      }
    },
    {
      "type": "Feature",
      "properties": {
        "norad_id": 32289,
        "name": "YAOGAN-3",
        "group": "resource",
        "lat": -13.171399510795041,
        "lon": -154.26189067909291,
        "alt_km": 603.0629901201164,
        "timestamp": "2025-12-27T02:10:15.844630+00:00",
        "meta_object_name": "YAOGAN-3",
        "meta_object_id": "2007-055A",
        "meta_epoch": "2025-12-26T20:28:17.023584",
        "meta_mean_motion": 14.89924174,
        "meta_eccentricity": 0.0001214,
        "meta_inclination": 97.8358,
        "meta_ra_of_asc_node": 27.3496,
        "meta_arg_of_pericenter": 82.2182,
        "meta_mean_anomaly": 277.9173,
        "meta_ephemeris_type": 0,
        "meta_classification_type": "U",
        "meta_norad_cat_id": 32289,
        "meta_element_set_no": 999,
        "meta_rev_at_epoch": 98019,
        "meta_bstar": 9.5118e-05,
        "meta_mean_motion_dot": 8.6e-06,
        "meta_mean_motion_ddot": 0,
        "tle_line1": "1 32289U 07055A   25360.85297481  .00000860  00000+0  95118-4 0  9992",
        "tle_line2": "2 32289  97.8358  27.3496 0001214  82.2182 277.9173 14.89924174980190"
      },
      "geometry": {
        "type": "Point",
        "coordinates": [
          -154.26189067909291,
          -13.171399510795041
        ]
      }
    }
  ]
}